{"type": "FeatureCollection", "features": [{"type": "Feature", "properties": {"norad_id": 25590, "name": "COSMOS 2361", "group": "musson", "lat": 34.0610586181684, "lon": 151.38522291566525, "alt_km": 985.44537620951, "timestamp": "2025-12-23T09:49:07.352810+00:00", "meta": {"OBJECT_NAME": "COSMOS 2361", "OBJECT_ID": "1998-076A", "EPOCH": "2025-12-22T16:27:59.472000", "MEAN_MOTION": 13.73218601, "ECCENTRICITY": 0.00302323, "INCLINATION": 82.9343, "RA_OF_ASC_NODE": 336.7295, "ARG_OF_PERICENTER": 236.799, "MEAN_ANOMALY": 296.8573, "EPHEMERIS_TYPE": 0, "CLASSIFICATION_TYPE": "U", "NORAD_CAT_ID": 25590, "ELEMENT_SET_NO": 999, "REV_AT_EPOCH": 35247, "BSTAR": 4.0704622e-05, "MEAN_MOTION_DOT": 5.3e-07, "MEAN_MOTION_DDOT": 0}, "tle": {"line1": "1 25590U 98076A   25356.68610500  .00000053  00000+0  40705-4 0  9995", "line2": "2 25590  82.9343 336.7295 0030232 236.7990 296.8573 13.73218601352476"}}, "geometry": {"type": "Point", "coordinates": [151.38522291566525, 34.0610586181684]}}, {"type": "Feature", "properties": {"norad_id": 26818, "name": "COSMOS 2378", "group": "musson", "lat": -72.89955848155006, "lon": -164.38589131534766, "alt_km": 987.5097846408444, "timestamp": "2025-12-23T09:49:07.352832+00:00", "meta": {"OBJECT_NAME": "COSMOS 2378", "OBJECT_ID": "2001-023A", "EPOCH": "2025-12-22T10:24:27.014400", "MEAN_MOTION": 13.74142737, "ECCENTRICITY": 0.00330042, "INCLINATION": 82.927, "RA_OF_ASC_NODE": 352.5364, "ARG_OF_PERICENTER": 177.6756, "MEAN_ANOMALY": 293.4774, "EPHEMERIS_TYPE": 0, "CLASSIFICATION_TYPE": "U", "NORAD_CAT_ID": 26818, "ELEMENT_SET_NO": 999, "REV_AT_EPOCH": 23056, "BSTAR": 2.5768837e-05, "MEAN_MOTION_DOT": 4e-07, "MEAN_MOTION_DDOT": 0}, "tle": {"line1": "1 26818U 01023A   25356.43364600  .00000040  00000+0  25769-4 0  9994", "line2": "2 26818  82.9270 352.5364 0033004 177.6756 293.4774 13.74142737230563"}}, "geometry": {"type": "Point", "coordinates": [-164.38589131534766, -72.89955848155006]}}, {"type": "Feature", "properties": {"norad_id": 27436, "name": "COSMOS 2389", "group": "musson", "lat": 39.306299714323565, "lon": 113.27313029799144, "alt_km": 989.0366817588665, "timestamp": "2025-12-23T09:49:07.352846+00:00", "meta": {"OBJECT_NAME": "COSMOS 2389", "OBJECT_ID": "2002-026A", "EPOCH": "2025-12-22T22:59:19.182624", "MEAN_MOTION": 13.75155651, "ECCENTRICITY": 0.00471965, "INCLINATION": 82.9511, "RA_OF_ASC_NODE": 299.4206, "ARG_OF_PERICENTER": 32.8727, "MEAN_ANOMALY": 34.1755, "EPHEMERIS_TYPE": 0, "CLASSIFICATION_TYPE": "U", "NORAD_CAT_ID": 27436, "ELEMENT_SET_NO": 999, "REV_AT_EPOCH": 18289, "BSTAR": 4.7958183e-05, "MEAN_MOTION_DOT": 6.2e-07, "MEAN_MOTION_DDOT": 0}, "tle": {"line1": "1 27436U 02026A   25356.95786091  .00000062  00000+0  47958-4 0  9992", "line2": "2 27436  82.9511 299.4206 0047196  32.8727  34.1755 13.75155651182890"}}, "geometry": {"type": "Point", "coordinates": [113.27313029799144, 39.306299714323565]}}, {"type": "Feature", "properties": {"norad_id": 27818, "name": "COSMOS 2398", "group": "musson", "lat": -14.179266380560948, "lon": -96.95574428127567, "alt_km": 998.6300442705024, "timestamp": "2025-12-23T09:49:07.352858+00:00", "meta": {"OBJECT_NAME": "COSMOS 2398", "OBJECT_ID": "2003-023A", "EPOCH": "2025-12-22T20:12:13.116672", "MEAN_MOTION": 13.72386809, "ECCENTRICITY": 0.00327146, "INCLINATION": 82.9483, "RA_OF_ASC_NODE": 265.2543, "ARG_OF_PERICENTER": 84.891, "MEAN_ANOMALY": 340.111, "EPHEMERIS_TYPE": 0, "CLASSIFICATION_TYPE": "U", "NORAD_CAT_ID": 27818, "ELEMENT_SET_NO": 999, "REV_AT_EPOCH": 12955, "BSTAR": 7.3840228e-05, "MEAN_MOTION_DOT": 8.3e-07, "MEAN_MOTION_DDOT": 0}, "tle": {"line1": "1 27818U 03023A   25356.84181848  .00000083  00000+0  73840-4 0  9993", "line2": "2 27818  82.9483 265.2543 0032714  84.8910 340.1110 13.72386809129555"}}, "geometry": {"type": "Point", "coordinates": [-96.95574428127567, -14.179266380560948]}}, {"type": "Feature", "properties": {"norad_id": 28380, "name": "COSMOS 2407", "group": "musson", "lat": -27.65235546675488, "lon": -158.71944893863272, "alt_km": 965.1714608515185, "timestamp": "2025-12-23T09:49:07.352869+00:00", "meta": {"OBJECT_NAME": "COSMOS 2407", "OBJECT_ID": "2004-028A", "EPOCH": "2025-12-22T13:18:15.732000", "MEAN_MOTION": 13.76314742, "ECCENTRICITY": 0.00398707, "INCLINATION": 82.9596, "RA_OF_ASC_NODE": 205.6259, "ARG_OF_PERICENTER": 28.0566, "MEAN_ANOMALY": 31.7987, "EPHEMERIS_TYPE": 0, "CLASSIFICATION_TYPE": "U", "NORAD_CAT_ID": 28380, "ELEMENT_SET_NO": 999, "REV_AT_EPOCH": 7558, "BSTAR": 4.1101222e-05, "MEAN_MOTION_DOT": 5.6e-07, "MEAN_MOTION_DDOT": 0}, "tle": {"line1": "1 28380U 04028A   25356.55434875  .00000056  00000+0  41101-4 0  9998", "line2": "2 28380  82.9596 205.6259 0039870  28.0566  31.7987 13.76314742 75583"}}, "geometry": {"type": "Point", "coordinates": [-158.71944893863272, -27.65235546675488]}}, {"type": "Feature", "properties": {"norad_id": 28521, "name": "COSMOS 2414", "group": "musson", "lat": -39.36903241086573, "lon": 170.76319260467017, "alt_km": 968.5211793991475, "timestamp": "2025-12-23T09:49:07.352881+00:00", "meta": {"OBJECT_NAME": "COSMOS 2414", "OBJECT_ID": "2005-002A", "EPOCH": "2025-12-22T20:10:08.449248", "MEAN_MOTION": 13.87904286, "ECCENTRICITY": 0.00413602, "INCLINATION": 82.9488, "RA_OF_ASC_NODE": 177.0219, "ARG_OF_PERICENTER": 111.6486, "MEAN_ANOMALY": 248.9091, "EPHEMERIS_TYPE": 0, "CLASSIFICATION_TYPE": "U", "NORAD_CAT_ID": 28521, "ELEMENT_SET_NO": 999, "REV_AT_EPOCH": 5935, "BSTAR": 4.2903828e-05, "MEAN_MOTION_DOT": 6.8e-07, "MEAN_MOTION_DDOT": 0}, "tle": {"line1": "1 28521U 05002A   25356.84037557  .00000068  00000+0  42904-4 0  9991", "line2": "2 28521  82.9488 177.0219 0041360 111.6486 248.9091 13.87904286 59350"}}, "geometry": {"type": "Point", "coordinates": [170.76319260467017, -39.36903241086573]}}, {"type": "Feature", "properties": {"norad_id": 32052, "name": "COSMOS 2429", "group": "musson", "lat": -34.732022278236684, "lon": -29.456406947493758, "alt_km": 966.6201334688203, "timestamp": "2025-12-23T09:49:07.352892+00:00", "meta": {"OBJECT_NAME": "COSMOS 2429", "OBJECT_ID": "2007-038A", "EPOCH": "2025-12-22T16:31:30.511776", "MEAN_MOTION": 13.75150343, "ECCENTRICITY": 0.00386621, "INCLINATION": 82.9807, "RA_OF_ASC_NODE": 335.9742, "ARG_OF_PERICENTER": 10.5262, "MEAN_ANOMALY": 349.6695, "EPHEMERIS_TYPE": 0, "CLASSIFICATION_TYPE": "U", "NORAD_CAT_ID": 32052, "ELEMENT_SET_NO": 999, "REV_AT_EPOCH": 91739, "BSTAR": 3.7979129e-05, "MEAN_MOTION_DOT": 5.2e-07, "MEAN_MOTION_DDOT": 0}, "tle": {"line1": "1 32052U 07038A   25356.68854759  .00000052  00000+0  37979-4 0  9998", "line2": "2 32052  82.9807 335.9742 0038662  10.5262 349.6695 13.75150343917395"}}, "geometry": {"type": "Point", "coordinates": [-29.456406947493758, -34.732022278236684]}}, {"type": "Feature", "properties": {"norad_id": 35635, "name": "COSMOS 2454", "group": "musson", "lat": 82.82605459897584, "lon": -120.2194023842836, "alt_km": 910.771315654365, "timestamp": "2025-12-23T09:49:07.352902+00:00", "meta": {"OBJECT_NAME": "COSMOS 2454", "OBJECT_ID": "2009-039A", "EPOCH": "2025-12-22T21:49:44.368320", "MEAN_MOTION": 13.89929927, "ECCENTRICITY": 0.00201205, "INCLINATION": 82.9556, "RA_OF_ASC_NODE": 160.9355, "ARG_OF_PERICENTER": 46.3695, "MEAN_ANOMALY": 63.8353, "EPHEMERIS_TYPE": 0, "CLASSIFICATION_TYPE": "U", "NORAD_CAT_ID": 35635, "ELEMENT_SET_NO": 999, "REV_AT_EPOCH": 83291, "BSTAR": 5.0864807e-05, "MEAN_MOTION_DOT": 7.9e-07, "MEAN_MOTION_DDOT": 0}, "tle": {"line1": "1 35635U 09039A   25356.90954130  .00000079  00000+0  50865-4 0  9998", "line2": "2 35635  82.9556 160.9355 0020120  46.3695  63.8353 13.89929927832916"}}, "geometry": {"type": "Point", "coordinates": [-120.2194023842836, 82.82605459897584]}}, {"type": "Feature", "properties": {"norad_id": 36519, "name": "COSMOS 2463", "group": "musson", "lat": 32.4552205292877, "lon": -165.63501093142824, "alt_km": 1000.4850280219025, "timestamp": "2025-12-23T09:49:07.352913+00:00", "meta": {"OBJECT_NAME": "COSMOS 2463", "OBJECT_ID": "2010-017A", "EPOCH": "2025-12-22T14:24:24.038208", "MEAN_MOTION": 13.71649971, "ECCENTRICITY": 0.00347728, "INCLINATION": 82.9604, "RA_OF_ASC_NODE": 19.4662, "ARG_OF_PERICENTER": 259.7039, "MEAN_ANOMALY": 216.1133, "EPHEMERIS_TYPE": 0, "CLASSIFICATION_TYPE": "U", "NORAD_CAT_ID": 36519, "ELEMENT_SET_NO": 999, "REV_AT_EPOCH": 78372, "BSTAR": 3.4874667e-05, "MEAN_MOTION_DOT": 4.6e-07, "MEAN_MOTION_DDOT": 0}, "tle": {"line1": "1 36519U 10017A   25356.60027822  .00000046  00000+0  34875-4 0  9991", "line2": "2 36519  82.9604  19.4662 0034772 259.7039 216.1133 13.71649971783723"}}, "geometry": {"type": "Point", "coordinates": [-165.63501093142824, 32.4552205292877]}}]}